sat42987
1 42987U 17068A   20046.90400339  .00000583  00000-0  21222-4 0  9991
2 42987  97.3269 162.9274 0010412  89.1588 271.0847 15.32116948127252
